{"fetched_at":"2026-03-29T16:36:15Z","count":15609,"tles":[{"name":"COSMOS 2024 (ETALON 2)","line1":"1 20026U 89039C   26087.83937954 -.00000021  00000+0  00000+0 0  9992","line2":"2 20026  64.9828 313.3049 0020488 213.1418 159.8764  2.13204526286791","category":"Other"}]}