{
  "norad_id": 20026,
  "name": "COSMOS 2024 (ETALON 2)",
  "history": [
    {
      "epoch": "2026-03-28T20:08:42.392256Z",
      "apogee_km": 19173.954327844018,
      "perigee_km": 19069.46411797333,
      "latitude_deg": 11.82130796792219,
      "longitude_deg": -169.51176819933454,
      "height_km": 19170.733522516293,
      "semi_major_axis_km": 25499.846222908673,
      "eccentricity": 0.00204884,
      "inclination_deg": 64.9828,
      "raan_deg": 313.3049,
      "arg_perigee_deg": 213.1418,
      "mean_anomaly_deg": 159.8764,
      "mean_motion_rev_day": 2.13204526
    }
  ]
}